     3.03           N: GNSS NAV DATA    M: Mixed            RINEX VERSION / TYPE
RTKCONV demo5 b33c                      20211201 205607 UTC PGM / RUN BY / DATE 
log: C:\data-RADARZ\helicoidal-20210730-multi-freq-gnss\ra  COMMENT             
format: u-blox                                              COMMENT             
GPSA   4.6566E-09  1.4901E-08 -5.9605E-08 -5.9605E-08       IONOSPHERIC CORR    
GPSB   7.7824E+04  4.9152E+04 -6.5536E+04 -3.2768E+05       IONOSPHERIC CORR    
GAL    0.0000E+00  0.0000E+00  0.0000E+00  0.0000E+00       IONOSPHERIC CORR    
QZSA   0.0000E+00  0.0000E+00  0.0000E+00  0.0000E+00       IONOSPHERIC CORR    
QZSB   0.0000E+00  0.0000E+00  0.0000E+00  0.0000E+00       IONOSPHERIC CORR    
IRNA   0.0000E+00  0.0000E+00  0.0000E+00  0.0000E+00       IONOSPHERIC CORR    
IRNB   0.0000E+00  0.0000E+00  0.0000E+00  0.0000E+00       IONOSPHERIC CORR    
GPUT -3.7252902985E-09-9.769962617E-15-458752 2168          TIME SYSTEM CORR    
GAUT  0.0000000000E+00 0.000000000E+00      0    0          TIME SYSTEM CORR    
QZUT  0.0000000000E+00 0.000000000E+00      0    0          TIME SYSTEM CORR    
BDUT  0.0000000000E+00 0.000000000E+00      0    0          TIME SYSTEM CORR    
IRUT  0.0000000000E+00 0.000000000E+00      0    0          TIME SYSTEM CORR    
    18                                                      LEAP SECONDS        
                                                            END OF HEADER       
E 3 2021  7 30 13 30  0 -.458262918983E-03 -.416378043155E-11  .000000000000E+00
      .330000000000E+02 -.617500000000E+02  .327156484524E-08  .132091667360E+00
     -.292994081974E-05  .296637066640E-03  .779144465923E-05  .544062923622E+04
      .480600000000E+06 -.186264514923E-07 -.265885533092E+01  .111758708954E-07
      .955456869059E+00  .167968750000E+03 -.908854753449E-01 -.568666544387E-08
     -.255724937684E-09  .513000000000E+03  .216800000000E+04  .000000000000E+00
      .312000000000E+01  .000000000000E+00  .325962901115E-08  .349245965481E-08
      .481279000000E+06  .000000000000E+00
E 7 2021  7 30 13 30  0 -.567813636735E-03 -.446220838057E-11  .000000000000E+00
      .330000000000E+02 -.660312500000E+02  .324513517291E-08 -.797927171681E+00
     -.304915010929E-05  .320884631947E-03  .843405723572E-05  .544062518311E+04
      .480600000000E+06 -.558793544769E-08 -.265882345979E+01 -.130385160446E-07
      .955501296419E+00  .160187500000E+03 -.731308145485E+00 -.561737684344E-08
     -.331799535068E-09  .513000000000E+03  .216800000000E+04  .000000000000E+00
      .312000000000E+01  .000000000000E+00  .535510480404E-08  .605359673500E-08
      .481279000000E+06  .000000000000E+00
E13 2021  7 30 13 30  0  .419666466769E-03  .468958205602E-12  .000000000000E+00
      .330000000000E+02  .101562500000E+02  .259617956987E-08 -.920004521104E+00
      .486150383949E-06  .101755838841E-03  .979378819466E-05  .544061114311E+04
      .480600000000E+06  .204890966415E-07  .151950847580E+01 -.447034835815E-07
      .995249201953E+00  .143750000000E+03  .151151068803E+01 -.537772400379E-08
      .128576784311E-09  .513000000000E+03  .216800000000E+04  .000000000000E+00
      .312000000000E+01  .000000000000E+00  .465661287308E-09  .000000000000E+00
      .481279000000E+06  .000000000000E+00
S31 2021  7 30 13 42 24 -.139698386192E-08  .727595761418E-11  .481317000000E+06
     -.191360244800E+05  .112500000000E-04 -.125000000000E-07  .000000000000E+00
     -.375719343200E+05 -.103750000000E-03  .000000000000E+00  .200000000000E+01
     -.531200000000E+00 -.148000000000E-03  .000000000000E+00  .000000000000E+00
S36 2021  7 30 13 42  8  .000000000000E+00  .000000000000E+00  .481335000000E+06
      .420036880000E+05  .000000000000E+00  .000000000000E+00  .100000000000E+01
      .367484696000E+04  .000000000000E+00  .000000000000E+00  .819200000000E+04
      .000000000000E+00  .000000000000E+00  .000000000000E+00  .000000000000E+00
S38 2021  7 30 13 42 24  .111758708954E-07  .818545231596E-11  .481407000000E+06
     -.125484444800E+05  .123625000000E-02  .375000000000E-07  .000000000000E+00
     -.402458539200E+05  .593750000000E-04 -.625000000000E-07  .200000000000E+01
      .649000000000E+01  .816000000000E-03 -.625000000000E-07  .000000000000E+00
S36 2021  7 30 13 44 16  .000000000000E+00  .000000000000E+00  .481463000000E+06
      .420036880000E+05  .000000000000E+00  .000000000000E+00  .100000000000E+01
      .367484696000E+04  .000000000000E+00  .000000000000E+00  .819200000000E+04
      .000000000000E+00  .000000000000E+00  .000000000000E+00  .000000000000E+00
S38 2021  7 30 13 46 40  .130385160446E-07  .818545231596E-11  .481575000000E+06
     -.125481268000E+05  .124625000000E-02  .375000000000E-07  .000000000000E+00
     -.402458408000E+05  .431250000000E-04 -.625000000000E-07  .200000000000E+01
      .669680000000E+01  .804000000000E-03 -.625000000000E-07  .000000000000E+00
S31 2021  7 30 13 46 40  .465661287308E-09  .818545231596E-11  .481575000000E+06
     -.191360220000E+05  .750000000000E-05 -.125000000000E-07  .000000000000E+00
     -.375719608800E+05 -.104375000000E-03  .000000000000E+00  .200000000000E+01
     -.569200000000E+00 -.148000000000E-03  .000000000000E+00  .000000000000E+00
S36 2021  7 30 13 46 24  .000000000000E+00  .000000000000E+00  .481591000000E+06
      .420036880000E+05  .000000000000E+00  .000000000000E+00  .100000000000E+01
      .367484696000E+04  .000000000000E+00  .000000000000E+00  .819200000000E+04
      .000000000000E+00  .000000000000E+00  .000000000000E+00  .000000000000E+00
S36 2021  7 30 13 48 32  .000000000000E+00  .000000000000E+00  .481719000000E+06
      .420036880000E+05  .000000000000E+00  .000000000000E+00  .100000000000E+01
      .367484696000E+04  .000000000000E+00  .000000000000E+00  .819200000000E+04
      .000000000000E+00  .000000000000E+00  .000000000000E+00  .000000000000E+00
S38 2021  7 30 13 50 56  .149011611938E-07  .818545231596E-11  .481829000000E+06
     -.125478065600E+05  .125687500000E-02  .375000000000E-07  .000000000000E+00
     -.402458318400E+05  .287500000000E-04 -.625000000000E-07  .200000000000E+01
      .690040000000E+01  .796000000000E-03 -.625000000000E-07  .000000000000E+00
S31 2021  7 30 13 50 56  .232830643654E-08  .909494701773E-11  .481829000000E+06
     -.191360204800E+05  .250000000000E-05 -.125000000000E-07  .000000000000E+00
     -.375719876000E+05 -.104375000000E-03  .000000000000E+00  .200000000000E+01
     -.607200000000E+00 -.144000000000E-03  .000000000000E+00  .000000000000E+00
S36 2021  7 30 13 50 40  .000000000000E+00  .000000000000E+00  .481847000000E+06
      .420036880000E+05  .000000000000E+00  .000000000000E+00  .100000000000E+01
      .367484696000E+04  .000000000000E+00  .000000000000E+00  .819200000000E+04
      .000000000000E+00  .000000000000E+00  .000000000000E+00  .000000000000E+00
E 8 2021  7 30 13 40  0  .596212863456E-02 -.612487838225E-11  .000000000000E+00
      .340000000000E+02 -.660625000000E+02  .320513350668E-08 -.352566191717E+00
     -.328011810780E-05  .292587443255E-03  .816024839878E-05  .544062664413E+04
      .481200000000E+06  .931322574615E-08 -.266339512121E+01  .260770320892E-07
      .961424452765E+00  .165093750000E+03 -.320964282182E+00 -.561130516195E-08
     -.322513433979E-09  .513000000000E+03  .216800000000E+04  .000000000000E+00
      .312000000000E+01  .000000000000E+00 -.372529029846E-08 -.419095158577E-08
      .481879000000E+06  .000000000000E+00
E 3 2021  7 30 13 40  0 -.458265363704E-03 -.416378043155E-11  .000000000000E+00
      .340000000000E+02 -.616562500000E+02  .327477926484E-08  .206440885812E+00
     -.291131436825E-05  .296646030620E-03  .778771936893E-05  .544062926483E+04
      .481200000000E+06 -.186264514923E-07 -.265885874391E+01  .931322574615E-08
      .955456708138E+00  .167968750000E+03 -.908498913255E-01 -.568737975934E-08
     -.255010622216E-09  .513000000000E+03  .216800000000E+04  .000000000000E+00
      .312000000000E+01  .000000000000E+00  .325962901115E-08  .349245965481E-08
      .481879000000E+06  .000000000000E+00
E 7 2021  7 30 13 40  0 -.567816430703E-03 -.446220838057E-11  .000000000000E+00
      .340000000000E+02 -.652187500000E+02  .325442127399E-08 -.723589668277E+00
     -.303611159325E-05  .320785213262E-03  .843219459057E-05  .544062498474E+04
      .481200000000E+06  .000000000000E+00 -.265882679232E+01 -.111758708954E-07
      .955501100388E+00  .160343750000E+03 -.731260815697E+00 -.562023410531E-08
     -.335013954676E-09  .513000000000E+03  .216800000000E+04  .000000000000E+00
      .312000000000E+01  .000000000000E+00  .535510480404E-08  .605359673500E-08
      .481879000000E+06  .000000000000E+00
E30 2021  7 30 13 40  0  .274238310521E-02 -.306812353301E-10  .000000000000E+00
      .340000000000E+02  .639687500000E+02  .311512975766E-08 -.311841813235E+01
      .295601785183E-05  .138090574183E-03  .446848571301E-05  .544060019112E+04
      .481200000000E+06  .167638063431E-07 -.558260613338E+00  .633299350739E-07
      .974628157403E+00  .254031250000E+03  .388482488049E+00 -.567630786958E-08
      .119290683221E-09  .513000000000E+03  .216800000000E+04  .000000000000E+00
      .312000000000E+01  .000000000000E+00  .186264514923E-08  .186264514923E-08
      .481879000000E+06  .000000000000E+00
E13 2021  7 30 13 40  0  .419666757807E-03  .468958205602E-12  .000000000000E+00
      .340000000000E+02  .862500000000E+01  .260725145963E-08 -.846459979279E+00
      .422820448875E-06  .101480865851E-03  .972300767899E-05  .544061056900E+04
      .481200000000E+06  .279396772385E-07  .151950522519E+01 -.391155481339E-07
      .995249244377E+00  .145500000000E+03  .151235108034E+01 -.538022410793E-08
      .134291308058E-09  .513000000000E+03  .216800000000E+04  .000000000000E+00
      .312000000000E+01  .000000000000E+00  .465661287308E-09  .000000000000E+00
      .481939000000E+06  .000000000000E+00
